[{"OBJECT_NAME":"QIANFAN-24","OBJECT_ID":"2024-185F","EPOCH":"2026-03-09T23:10:13.381824","MEAN_MOTION":14.23940693,"ECCENTRICITY":0.00101265,"INCLINATION":88.9739,"RA_OF_ASC_NODE":66.9556,"ARG_OF_PERICENTER":26.7081,"MEAN_ANOMALY":333.4631,"EPHEMERIS_TYPE":0,"CLASSIFICATION_TYPE":"U","NORAD_CAT_ID":61557,"ELEMENT_SET_NO":999,"REV_AT_EPOCH":8243,"BSTAR":0.00040785949,"MEAN_MOTION_DOT":9.49e-6,"MEAN_MOTION_DDOT":0},{"OBJECT_NAME":"COSMOS 972","OBJECT_ID":"1977-123A","EPOCH":"2026-03-09T22:03:22.081248","MEAN_MOTION":13.89154605,"ECCENTRICITY":0.0301569,"INCLINATION":75.8316,"RA_OF_ASC_NODE":255.9812,"ARG_OF_PERICENTER":54.6026,"MEAN_ANOMALY":308.2882,"EPHEMERIS_TYPE":0,"CLASSIFICATION_TYPE":"U","NORAD_CAT_ID":10539,"ELEMENT_SET_NO":999,"REV_AT_EPOCH":44226,"BSTAR":5.5698539e-5,"MEAN_MOTION_DOT":8.7e-7,"MEAN_MOTION_DDOT":0}]
